[
    {
        "Altitude(m)": 607911.0158311184,
        "Argument of Periapsis(deg)": 0.0,
        "Eccentricity": 0.0,
        "Inclination(deg)": 60.0,
        "Latitude(deg)": -14.292982529599822,
        "Longitude(deg)": -21.557324332855412,
        "Mean Anomaly(deg)": -163.6364,
        "RAAN(deg)": 250.00000000000003,
        "Satellite Name": "Test1 1112",
        "Satellite Number": 1112,
        "Semi-Major Axis(m)": 6980739.136638005,
        "Time(s)": 0
    },
    {
        "Altitude(m)": 608060.2495530955,
        "Argument of Periapsis(deg)": 0.00010418945913296404,
        "Eccentricity": 0.0,
        "Inclination(deg)": 60.0,
        "Latitude(deg)": -14.826643365972892,
        "Longitude(deg)": -21.26871374417543,
        "Mean Anomaly(deg)": -163.01629385453816,
        "RAAN(deg)": 249.99957995086027,
        "Satellite Name": "Test1 1112",
        "Satellite Number": 1112,
        "Semi-Major Axis(m)": 6980739.136638005,
        "Time(s)": 10
    }
]